[{"OBJECT_NAME":"STARLINK-30166","OBJECT_ID":"2023-119A","EPOCH":"2025-10-03T13:10:57.519840","MEAN_MOTION":15.02530052,"ECCENTRICITY":0.00012872,"INCLINATION":43.0036,"RA_OF_ASC_NODE":215.8363,"ARG_OF_PERICENTER":266.0422,"MEAN_ANOMALY":94.0273,"EPHEMERIS_TYPE":0,"CLASSIFICATION_TYPE":"U","NORAD_CAT_ID":57602,"ELEMENT_SET_NO":999,"REV_AT_EPOCH":11938,"BSTAR":0.0002340973,"MEAN_MOTION_DOT":2.959e-5,"MEAN_MOTION_DDOT":0},{"OBJECT_NAME":"STARLINK-30223","OBJECT_ID":"2023-119B","EPOCH":"2025-10-04T20:36:44.875872","MEAN_MOTION":15.02518197,"ECCENTRICITY":8.8e-5,"INCLINATION":43.0017,"RA_OF_ASC_NODE":208.4514,"ARG_OF_PERICENTER":278.4539,"MEAN_ANOMALY":81.6203,"EPHEMERIS_TYPE":0,"CLASSIFICATION_TYPE":"U","NORAD_CAT_ID":57603,"ELEMENT_SET_NO":999,"REV_AT_EPOCH":11963,"BSTAR":0.00034946,"MEAN_MOTION_DOT":4.518e-5,"MEAN_MOTION_DDOT":0},{"OBJECT_NAME":"STARLINK-30218","OBJECT_ID":"2023-119C","EPOCH":"2025-10-04T20:46:20.900352","MEAN_MOTION":15.02530308,"ECCENTRICITY":0.0001875,"INCLINATION":43.0059,"RA_OF_ASC_NODE":208.5086,"ARG_OF_PERICENTER":264.4574,"MEAN_ANOMALY":95.6054,"EPHEMERIS_TYPE":0,"CLASSIFICATION_TYPE":"U","NORAD_CAT_ID":57604,"ELEMENT_SET_NO":999,"REV_AT_EPOCH":11964,"BSTAR":1.2954e-5,"MEAN_MOTION_DOT":-2.9e-7,"MEAN_MOTION_DDOT":0},{"OBJECT_NAME":"STARLINK-30138","OBJECT_ID":"2023-119D","EPOCH":"2025-10-04T20:41:32.334720","MEAN_MOTION":15.02575924,"ECCENTRICITY":0.0001534,"INCLINATION":43.0042,"RA_OF_ASC_NODE":208.4885,"ARG_OF_PERICENTER":277.7619,"MEAN_ANOMALY":82.3049,"EPHEMERIS_TYPE":0,"CLASSIFICATION_TYPE":"U","NORAD_CAT_ID":57605,"ELEMENT_SET_NO":999,"REV_AT_EPOCH":11964,"BSTAR":-0.00041292,"MEAN_MOTION_DOT":-5.783e-5,"MEAN_MOTION_DDOT":0},{"OBJECT_NAME":"STARLINK-30255","OBJECT_ID":"2023-119E","EPOCH":"2025-10-04T20:04:46.967808","MEAN_MOTION":15.0257638,"ECCENTRICITY":9.26e-5,"INCLINATION":43.0025,"RA_OF_ASC_NODE":208.2924,"ARG_OF_PERICENTER":282.8133,"MEAN_ANOMALY":77.2606,"EPHEMERIS_TYPE":0,"CLASSIFICATION_TYPE":"U","NORAD_CAT_ID":57606,"ELEMENT_SET_NO":999,"REV_AT_EPOCH":11964,"BSTAR":-0.00060332,"MEAN_MOTION_DOT":-8.352e-5,"MEAN_MOTION_DDOT":0},{"OBJECT_NAME":"STARLINK-30252","OBJECT_ID":"2023-119F","EPOCH":"2025-10-04T11:21:58.821408","MEAN_MOTION":15.02532303,"ECCENTRICITY":0.0001512,"INCLINATION":43.0053,"RA_OF_ASC_NODE":197.99,"ARG_OF_PERICENTER":266.6247,"MEAN_ANOMALY":93.4422,"EPHEMERIS_TYPE":0,"CLASSIFICATION_TYPE":"U","NORAD_CAT_ID":57607,"ELEMENT_SET_NO":999,"REV_AT_EPOCH":11973,"BSTAR":4.4594e-5,"MEAN_MOTION_DOT":3.99e-6,"MEAN_MOTION_DDOT":0},{"OBJECT_NAME":"STARLINK-30258","OBJECT_ID":"2023-119G","EPOCH":"2025-10-04T20:28:45.139008","MEAN_MOTION":15.02551023,"ECCENTRICITY":6.27e-5,"INCLINATION":43.0002,"RA_OF_ASC_NODE":208.4169,"ARG_OF_PERICENTER":306.8003,"MEAN_ANOMALY":53.2781,"EPHEMERIS_TYPE":0,"CLASSIFICATION_TYPE":"U","NORAD_CAT_ID":57608,"ELEMENT_SET_NO":999,"REV_AT_EPOCH":11964,"BSTAR":0.00020068,"MEAN_MOTION_DOT":2.51e-5,"MEAN_MOTION_DDOT":0},{"OBJECT_NAME":"STARLINK-30174","OBJECT_ID":"2023-119H","EPOCH":"2025-10-04T20:17:34.456416","MEAN_MOTION":15.02529763,"ECCENTRICITY":0.0001053,"INCLINATION":43.0011,"RA_OF_ASC_NODE":208.357,"ARG_OF_PERICENTER":289.7755,"MEAN_ANOMALY":70.2974,"EPHEMERIS_TYPE":0,"CLASSIFICATION_TYPE":"U","NORAD_CAT_ID":57609,"ELEMENT_SET_NO":999,"REV_AT_EPOCH":11964,"BSTAR":0.00010667,"MEAN_MOTION_DOT":1.237e-5,"MEAN_MOTION_DDOT":0},{"OBJECT_NAME":"STARLINK-30248","OBJECT_ID":"2023-119J","EPOCH":"2025-10-04T20:22:22.054368","MEAN_MOTION":15.02530931,"ECCENTRICITY":0.0001022,"INCLINATION":43.0018,"RA_OF_ASC_NODE":208.385,"ARG_OF_PERICENTER":285.7955,"MEAN_ANOMALY":74.2775,"EPHEMERIS_TYPE":0,"CLASSIFICATION_TYPE":"U","NORAD_CAT_ID":57610,"ELEMENT_SET_NO":999,"REV_AT_EPOCH":11964,"BSTAR":0.00020276,"MEAN_MOTION_DOT":2.536e-5,"MEAN_MOTION_DDOT":0},{"OBJECT_NAME":"STARLINK-30052","OBJECT_ID":"2023-119K","EPOCH":"2025-10-04T20:12:46.583712","MEAN_MOTION":15.02542396,"ECCENTRICITY":0.0001402,"INCLINATION":43.0037,"RA_OF_ASC_NODE":208.3337,"ARG_OF_PERICENTER":275.0846,"MEAN_ANOMALY":84.9836,"EPHEMERIS_TYPE":0,"CLASSIFICATION_TYPE":"U","NORAD_CAT_ID":57611,"ELEMENT_SET_NO":999,"REV_AT_EPOCH":11962,"BSTAR":0.00018766,"MEAN_MOTION_DOT":2.333e-5,"MEAN_MOTION_DDOT":0},{"OBJECT_NAME":"STARLINK-30245","OBJECT_ID":"2023-119L","EPOCH":"2025-10-03T05:50:30.067584","MEAN_MOTION":15.02536125,"ECCENTRICITY":8.604e-5,"INCLINATION":43.0017,"RA_OF_ASC_NODE":216.9775,"ARG_OF_PERICENTER":277.7272,"MEAN_ANOMALY":82.3473,"EPHEMERIS_TYPE":0,"CLASSIFICATION_TYPE":"U","NORAD_CAT_ID":57612,"ELEMENT_SET_NO":999,"REV_AT_EPOCH":11940,"BSTAR":0.0001755533,"MEAN_MOTION_DOT":2.169e-5,"MEAN_MOTION_DDOT":0},{"OBJECT_NAME":"STARLINK-30041","OBJECT_ID":"2023-119M","EPOCH":"2025-10-04T20:03:11.648736","MEAN_MOTION":15.02535927,"ECCENTRICITY":0.0001005,"INCLINATION":43.0016,"RA_OF_ASC_NODE":208.2826,"ARG_OF_PERICENTER":280.6268,"MEAN_ANOMALY":79.4461,"EPHEMERIS_TYPE":0,"CLASSIFICATION_TYPE":"U","NORAD_CAT_ID":57613,"ELEMENT_SET_NO":999,"REV_AT_EPOCH":11964,"BSTAR":-2.8494e-6,"MEAN_MOTION_DOT":-2.42e-6,"MEAN_MOTION_DDOT":0},{"OBJECT_NAME":"STARLINK-30244","OBJECT_ID":"2023-119N","EPOCH":"2025-10-04T19:58:23.230848","MEAN_MOTION":15.02544971,"ECCENTRICITY":9.48e-5,"INCLINATION":43.0006,"RA_OF_ASC_NODE":208.2624,"ARG_OF_PERICENTER":296.8236,"MEAN_ANOMALY":63.2509,"EPHEMERIS_TYPE":0,"CLASSIFICATION_TYPE":"U","NORAD_CAT_ID":57614,"ELEMENT_SET_NO":999,"REV_AT_EPOCH":11964,"BSTAR":0.00033553,"MEAN_MOTION_DOT":4.333e-5,"MEAN_MOTION_DDOT":0},{"OBJECT_NAME":"STARLINK-30246","OBJECT_ID":"2023-119P","EPOCH":"2025-10-04T19:53:35.569824","MEAN_MOTION":15.02540925,"ECCENTRICITY":0.0001181,"INCLINATION":43.0016,"RA_OF_ASC_NODE":208.2211,"ARG_OF_PERICENTER":277.9132,"MEAN_ANOMALY":82.1576,"EPHEMERIS_TYPE":0,"CLASSIFICATION_TYPE":"U","NORAD_CAT_ID":57615,"ELEMENT_SET_NO":999,"REV_AT_EPOCH":11964,"BSTAR":0.00015096,"MEAN_MOTION_DOT":1.836e-5,"MEAN_MOTION_DDOT":0},{"OBJECT_NAME":"STARLINK-30075","OBJECT_ID":"2023-119Q","EPOCH":"2025-10-04T19:48:58.853952","MEAN_MOTION":15.02521292,"ECCENTRICITY":0.0001104,"INCLINATION":43.0036,"RA_OF_ASC_NODE":209.0726,"ARG_OF_PERICENTER":272.1696,"MEAN_ANOMALY":87.9019,"EPHEMERIS_TYPE":0,"CLASSIFICATION_TYPE":"U","NORAD_CAT_ID":57616,"ELEMENT_SET_NO":999,"REV_AT_EPOCH":11963,"BSTAR":0.00035871,"MEAN_MOTION_DOT":4.643e-5,"MEAN_MOTION_DDOT":0},{"OBJECT_NAME":"STARLINK-30148","OBJECT_ID":"2023-119R","EPOCH":"2025-10-04T19:44:10.366080","MEAN_MOTION":15.02537827,"ECCENTRICITY":0.0001351,"INCLINATION":43.0032,"RA_OF_ASC_NODE":209.0477,"ARG_OF_PERICENTER":258.136,"MEAN_ANOMALY":101.9331,"EPHEMERIS_TYPE":0,"CLASSIFICATION_TYPE":"U","NORAD_CAT_ID":57617,"ELEMENT_SET_NO":999,"REV_AT_EPOCH":11963,"BSTAR":6.7811e-5,"MEAN_MOTION_DOT":7.13e-6,"MEAN_MOTION_DDOT":0}]
