STARLINK-30166          
1 57602U 23119A   25276.54927685  .00002959  00000+0  23410-3 0  9991
2 57602  43.0036 215.8363 0001287 266.0422  94.0273 15.02530052119386
STARLINK-30223          
1 57603U 23119B   25277.85885273  .00004518  00000+0  34946-3 0  9992
2 57603  43.0017 208.4514 0000880 278.4539  81.6203 15.02518197119635
STARLINK-30218          
1 57604U 23119C   25277.86551968 -.00000029  00000+0  12954-4 0  9995
2 57604  43.0059 208.5086 0001875 264.4574  95.6054 15.02530308119644
STARLINK-30138          
1 57605U 23119D   25277.86217980 -.00005783  00000+0 -41292-3 0  9998
2 57605  43.0042 208.4885 0001534 277.7619  82.3049 15.02575924119642
STARLINK-30255          
1 57606U 23119E   25277.83665472 -.00008352  00000+0 -60332-3 0  9990
2 57606  43.0025 208.2924 0000926 282.8133  77.2606 15.02576380119647
STARLINK-30252          
1 57607U 23119F   25277.47359747  .00000399  00000+0  44594-4 0  9990
2 57607  43.0053 197.9900 0001512 266.6247  93.4422 15.02532303119738
STARLINK-30258          
1 57608U 23119G   25277.85330022  .00002510  00000+0  20068-3 0  9994
2 57608  43.0002 208.4169 0000627 306.8003  53.2781 15.02551023119643
STARLINK-30174          
1 57609U 23119H   25277.84553769  .00001237  00000+0  10667-3 0  9998
2 57609  43.0011 208.3570 0001053 289.7755  70.2974 15.02529763119645
STARLINK-30248          
1 57610U 23119J   25277.84886637  .00002536  00000+0  20276-3 0  9993
2 57610  43.0018 208.3850 0001022 285.7955  74.2775 15.02530931119641
STARLINK-30052          
1 57611U 23119K   25277.84220583  .00002333  00000+0  18766-3 0  9992
2 57611  43.0037 208.3337 0001402 275.0846  84.9836 15.02542396119628
STARLINK-30245          
1 57612U 23119L   25276.24340356  .00002169  00000+0  17555-3 0  9999
2 57612  43.0017 216.9775 0000860 277.7272  82.3473 15.02536125119405
STARLINK-30041          
1 57613U 23119M   25277.83555149 -.00000242  00000+0 -28494-5 0  9992
2 57613  43.0016 208.2826 0001005 280.6268  79.4461 15.02535927119645
STARLINK-30244          
1 57614U 23119N   25277.83221332  .00004333  00000+0  33553-3 0  9990
2 57614  43.0006 208.2624 0000948 296.8236  63.2509 15.02544971119643
STARLINK-30246          
1 57615U 23119P   25277.82888391  .00001836  00000+0  15096-3 0  9991
2 57615  43.0016 208.2211 0001181 277.9132  82.1576 15.02540925119641
STARLINK-30075          
1 57616U 23119Q   25277.82568118  .00004643  00000+0  35871-3 0  9996
2 57616  43.0036 209.0726 0001104 272.1696  87.9019 15.02521292119631
STARLINK-30148          
1 57617U 23119R   25277.82234220  .00000713  00000+0  67811-4 0  9995
2 57617  43.0032 209.0477 0001351 258.1360 101.9331 15.02537827119632
